{"type": "FeatureCollection", "features": [ {"type": "Feature", "properties": {"norad_id": 44622, "name": "GAOFEN-10R", "group": "resource", "lat": 26.941415654919414, "lon": -66.21823584353463, "alt_km": 614.1151133600033, "timestamp": "2025-12-16T08:59:42.816307+00:00", "meta": {"OBJECT_NAME": "GAOFEN-10R", "OBJECT_ID": "2019-066A", "EPOCH": "2025-12-15T23:09:20.701152", "MEAN_MOTION": 14.82803296, "ECCENTRICITY": 0.00076714, "INCLINATION": 98.0281, "RA_OF_ASC_NODE": 297.4836, "ARG_OF_PERICENTER": 32.5892, "MEAN_ANOMALY": 327.5793, "EPHEMERIS_TYPE": 0, "CLASSIFICATION_TYPE": "U", "NORAD_CAT_ID": 44622, "ELEMENT_SET_NO": 999, "REV_AT_EPOCH": 33522, "BSTAR": 0.00020256317, "MEAN_MOTION_DOT": 1.584e-05, "MEAN_MOTION_DDOT": 0}, "tle": {"line1": "1 44622U 19066A   25349.96482293  .00001584  00000+0  20256-3 0  9991", "line2": "2 44622  98.0281 297.4836 0007671  32.5892 327.5793 14.82803296335221"}}, "geometry": {"type": "Point", "coordinates": [-66.21823584353463, 26.941415654919414]}}, {"type": "Feature", "properties": {"norad_id": 44804, "name": "CARTOSAT-3", "group": "resource", "lat": -53.75341760998543, "lon": 60.20614712725251, "alt_km": 521.0138117543493, "timestamp": "2025-12-16T08:59:42.816317+00:00", "meta": {"OBJECT_NAME": "CARTOSAT-3", "OBJECT_ID": "2019-081A", "EPOCH": "2025-12-15T23:44:58.854912", "MEAN_MOTION": 15.19179712, "ECCENTRICITY": 0.00140825, "INCLINATION": 97.4584, "RA_OF_ASC_NODE": 49.5323, "ARG_OF_PERICENTER": 72.7318, "MEAN_ANOMALY": 287.5456, "EPHEMERIS_TYPE": 0, "CLASSIFICATION_TYPE": "U", "NORAD_CAT_ID": 44804, "ELEMENT_SET_NO": 999, "REV_AT_EPOCH": 33565, "BSTAR": 0.00016690855, "MEAN_MOTION_DOT": 3.45e-05, "MEAN_MOTION_DDOT": 0}, "tle": {"line1": "1 44804U 19081A   25349.98957008  .00003450  00000+0  16691-3 0  9995", "line2": "2 44804  97.4584  49.5323 0014082  72.7318 287.5456 15.19179712335650"}}, "geometry": {"type": "Point", "coordinates": [60.20614712725251, -53.75341760998543]}}, {"type": "Feature", "properties": {"norad_id": 44819, "name": "GAOFEN-12 01", "group": "resource", "lat": -81.37931277065206, "lon": 111.65257159867444, "alt_km": 633.9526163043429, "timestamp": "2025-12-16T08:59:42.816327+00:00", "meta": {"OBJECT_NAME": "GAOFEN-12 01", "OBJECT_ID": "2019-082A", "EPOCH": "2025-12-15T23:41:11.013792", "MEAN_MOTION": 14.80661193, "ECCENTRICITY": 0.00015014, "INCLINATION": 97.8125, "RA_OF_ASC_NODE": 356.1827, "ARG_OF_PERICENTER": 215.1771, "MEAN_ANOMALY": 144.9342, "EPHEMERIS_TYPE": 0, "CLASSIFICATION_TYPE": "U", "NORAD_CAT_ID": 44819, "ELEMENT_SET_NO": 999, "REV_AT_EPOCH": 32698, "BSTAR": 7.1003359e-05, "MEAN_MOTION_DOT": 4.95e-06, "MEAN_MOTION_DDOT": 0}, "tle": {"line1": "1 44819U 19082A   25349.98693303  .00000495  00000+0  71003-4 0  9992", "line2": "2 44819  97.8125 356.1827 0001501 215.1771 144.9342 14.80661193326987"}}, "geometry": {"type": "Point", "coordinates": [111.65257159867444, -81.37931277065206]}}, {"type": "Feature", "properties": {"norad_id": 44873, "name": "CSG-1", "group": "resource", "lat": 36.48377522034872, "lon": 165.76448559158572, "alt_km": 619.233002602361, "timestamp": "2025-12-16T08:59:42.816337+00:00", "meta": {"OBJECT_NAME": "CSG-1", "OBJECT_ID": "2019-092A", "EPOCH": "2025-12-15T08:31:32.846592", "MEAN_MOTION": 14.8216804, "ECCENTRICITY": 0.00014203, "INCLINATION": 97.881, "RA_OF_ASC_NODE": 170.6401, "ARG_OF_PERICENTER": 84.0794, "MEAN_ANOMALY": 276.0581, "EPHEMERIS_TYPE": 0, "CLASSIFICATION_TYPE": "U", "NORAD_CAT_ID": 44873, "ELEMENT_SET_NO": 999, "REV_AT_EPOCH": 32424, "BSTAR": 8.958018e-05, "MEAN_MOTION_DOT": 6.61e-06, "MEAN_MOTION_DDOT": 0}, "tle": {"line1": "1 44873U 19092A   25349.35524128  .00000661  00000+0  89580-4 0  9996", "line2": "2 44873  97.8810 170.6401 0001420  84.0794 276.0581 14.82168040324247"}}, "geometry": {"type": "Point", "coordinates": [165.76448559158572, 36.48377522034872]}}, {"type": "Feature", "properties": {"norad_id": 46277, "name": "NEMO-HD", "group": "resource", "lat": -55.494100231201706, "lon": -141.2026902953545, "alt_km": 453.15264310923703, "timestamp": "2025-12-16T08:59:42.816347+00:00", "meta": {"OBJECT_NAME": "NEMO-HD", "OBJECT_ID": "2020-061F", "EPOCH": "2025-12-16T00:10:41.234016", "MEAN_MOTION": 15.40399089, "ECCENTRICITY": 0.00016705, "INCLINATION": 97.2215, "RA_OF_ASC_NODE": 49.0639, "ARG_OF_PERICENTER": 53.7909, "MEAN_ANOMALY": 306.3492, "EPHEMERIS_TYPE": 0, "CLASSIFICATION_TYPE": "U", "NORAD_CAT_ID": 46277, "ELEMENT_SET_NO": 999, "REV_AT_EPOCH": 29374, "BSTAR": 0.00021459566, "MEAN_MOTION_DOT": 8.593e-05, "MEAN_MOTION_DDOT": 0}, "tle": {"line1": "1 46277U 20061F   25350.00742169  .00008593  00000+0  21460-3 0  9999", "line2": "2 46277  97.2215  49.0639 0001670  53.7909 306.3492 15.40399089293742"}}, "geometry": {"type": "Point", "coordinates": [-141.2026902953545, -55.494100231201706]}}, {"type": "Feature", "properties": {"norad_id": 46984, "name": "SENTINEL-6A", "group": "resource", "lat": -52.29067494862648, "lon": 119.64930145864024, "alt_km": 1338.6740377841998, "timestamp": "2025-12-16T08:59:42.816357+00:00", "meta": {"OBJECT_NAME": "SENTINEL-6A", "OBJECT_ID": "2020-086A", "EPOCH": "2025-12-15T20:11:26.426112", "MEAN_MOTION": 12.80930731, "ECCENTRICITY": 0.00077166, "INCLINATION": 66.039, "RA_OF_ASC_NODE": 155.8659, "ARG_OF_PERICENTER": 269.2652, "MEAN_ANOMALY": 90.7479, "EPHEMERIS_TYPE": 0, "CLASSIFICATION_TYPE": "U", "NORAD_CAT_ID": 46984, "ELEMENT_SET_NO": 999, "REV_AT_EPOCH": 23684, "BSTAR": 0.00011367898, "MEAN_MOTION_DOT": -3.5e-07, "MEAN_MOTION_DDOT": 0}, "tle": {"line1": "1 46984U 20086A   25349.84127808 -.00000035  00000+0  11368-3 0  9998", "line2": "2 46984  66.0390 155.8659 0007716 269.2652  90.7479 12.80930731236842"}}, "geometry": {"type": "Point", "coordinates": [119.64930145864024, -52.29067494862648]}}, {"type": "Feature", "properties": {"norad_id": 48079, "name": "GAOFEN-12 02", "group": "resource", "lat": -78.78837425792146, "lon": 29.45035178446578, "alt_km": 637.0270704134764, "timestamp": "2025-12-16T08:59:42.816368+00:00", "meta": {"OBJECT_NAME": "GAOFEN-12 02", "OBJECT_ID": "2021-026A", "EPOCH": "2025-12-15T23:38:04.545312", "MEAN_MOTION": 14.80679011, "ECCENTRICITY": 0.00035867, "INCLINATION": 97.9852, "RA_OF_ASC_NODE": 343.9755, "ARG_OF_PERICENTER": 94.5873, "MEAN_ANOMALY": 265.5749, "EPHEMERIS_TYPE": 0, "CLASSIFICATION_TYPE": "U", "NORAD_CAT_ID": 48079, "ELEMENT_SET_NO": 999, "REV_AT_EPOCH": 25465, "BSTAR": 7.1752374e-05, "MEAN_MOTION_DOT": 4.99e-06, "MEAN_MOTION_DDOT": 0}, "tle": {"line1": "1 48079U 21026A   25349.98477483  .00000499  00000+0  71752-4 0  9999", "line2": "2 48079  97.9852 343.9755 0003586  94.5873 265.5749 14.80679011254651"}}, "geometry": {"type": "Point", "coordinates": [29.45035178446578, -78.78837425792146]}}, {"type": "Feature", "properties": {"norad_id": 48268, "name": "PLEIADES NEO 3", "group": "resource", "lat": -2.2294832879298667, "lon": 63.072728981426195, "alt_km": 627.3729874917453, "timestamp": "2025-12-16T08:59:42.816379+00:00", "meta": {"OBJECT_NAME": "PLEIADES NEO 3", "OBJECT_ID": "2021-034A", "EPOCH": "2025-12-15T05:27:07.814592", "MEAN_MOTION": 14.81673903, "ECCENTRICITY": 0.00013201, "INCLINATION": 97.8945, "RA_OF_ASC_NODE": 61.6322, "ARG_OF_PERICENTER": 93.5672, "MEAN_ANOMALY": 266.5692, "EPHEMERIS_TYPE": 0, "CLASSIFICATION_TYPE": "U", "NORAD_CAT_ID": 48268, "ELEMENT_SET_NO": 999, "REV_AT_EPOCH": 25041, "BSTAR": 0.00025143135, "MEAN_MOTION_DOT": 1.927e-05, "MEAN_MOTION_DDOT": 0}, "tle": {"line1": "1 48268U 21034A   25349.22717378  .00001927  00000+0  25143-3 0  9994", "line2": "2 48268  97.8945  61.6322 0001320  93.5672 266.5692 14.81673903250410"}}, "geometry": {"type": "Point", "coordinates": [63.072728981426195, -2.2294832879298667]}}, {"type": "Feature", "properties": {"norad_id": 49070, "name": "PLEIADES NEO 4", "group": "resource", "lat": 1.932594550233062, "lon": -116.9725817897749, "alt_km": 626.8146017563386, "timestamp": "2025-12-16T08:59:42.816389+00:00", "meta": {"OBJECT_NAME": "PLEIADES NEO 4", "OBJECT_ID": "2021-073E", "EPOCH": "2025-12-16T00:05:27.373920", "MEAN_MOTION": 14.8167071, "ECCENTRICITY": 0.00013253, "INCLINATION": 97.8947, "RA_OF_ASC_NODE": 62.3935, "ARG_OF_PERICENTER": 89.712, "MEAN_ANOMALY": 270.4244, "EPHEMERIS_TYPE": 0, "CLASSIFICATION_TYPE": "U", "NORAD_CAT_ID": 49070, "ELEMENT_SET_NO": 999, "REV_AT_EPOCH": 23424, "BSTAR": -3.109413e-05, "MEAN_MOTION_DOT": -2.97e-06, "MEAN_MOTION_DDOT": 0}, "tle": {"line1": "1 49070U 21073E   25350.00378905 -.00000297  00000+0 -31094-4 0  9990", "line2": "2 49070  97.8947  62.3935 0001325  89.7120 270.4244 14.81670710234245"}}, "geometry": {"type": "Point", "coordinates": [-116.9725817897749, 1.932594550233062]}}, {"type": "Feature", "properties": {"norad_id": 49260, "name": "LANDSAT 9", "group": "resource", "lat": -52.878154316160945, "lon": -132.56222986412635, "alt_km": 710.185475446352, "timestamp": "2025-12-16T08:59:42.816399+00:00", "meta": {"OBJECT_NAME": "LANDSAT 9", "OBJECT_ID": "2021-088A", "EPOCH": "2025-12-15T22:02:16.785312", "MEAN_MOTION": 14.57101186, "ECCENTRICITY": 0.00011407, "INCLINATION": 98.2092, "RA_OF_ASC_NODE": 57.9832, "ARG_OF_PERICENTER": 89.8233, "MEAN_ANOMALY": 270.3096, "EPHEMERIS_TYPE": 0, "CLASSIFICATION_TYPE": "U", "NORAD_CAT_ID": 49260, "ELEMENT_SET_NO": 999, "REV_AT_EPOCH": 22431, "BSTAR": 0.00010153374, "MEAN_MOTION_DOT": 4.12e-06, "MEAN_MOTION_DDOT": 0}, "tle": {"line1": "1 49260U 21088A   25349.91824983  .00000412  00000+0  10153-3 0  9996", "line2": "2 49260  98.2092  57.9832 0001140  89.8233 270.3096 14.57101186224319"}}, "geometry": {"type": "Point", "coordinates": [-132.56222986412635, -52.878154316160945]}}]}